DUBAISAT-1              
1 35682U 09041B   26182.26583725  .00001015  00000+0  15779-3 0  9993
2 35682  98.0069 315.3705 0010982  32.6095 327.5790 14.75147280907173
OCEANSAT-2              
1 35931U 09051A   26182.56822398 -.00000231  00000+0 -13209-3 0  9993
2 35931  98.2318 167.9843 0016386 193.1999 166.8741 13.99659604881346
WORLDVIEW-2 (WV-2)      
1 35946U 09055A   26182.56809507  .00000141  00000+0  61067-4 0  9994
2 35946  98.4763 255.8210 0004623 164.4189 195.7141 14.37903561877714
SMOS                    
1 36036U 09059A   26182.50558877  .00000261  00000+0  97064-4 0  9993
2 36036  98.4425   9.6307 0001308  87.7605 272.3733 14.39780316875517
YAOGAN-7                
1 36110U 09069A   26182.23790056  .00000567  00000+0  85477-4 0  9998
2 36110  98.0053  68.0171 0024553 357.4241   2.6839 14.78024154891705
TANDEM-X                
1 36605U 10030A   26181.56298572  .00000420  00000+0  23208-4 0  9990
2 36605  97.4456 189.0787 0001755  96.3101 263.8334 15.19150820888673
CARTOSAT-2B             
1 36795U 10035A   26182.61801250  .00000412  00000+0  63448-4 0  9996
2 36795  97.9946 233.0757 0011936 138.3641 221.8481 14.78601008861982
YAOGAN-10               
1 36834U 10038A   26182.64071403  .00001968  00000+0  23478-3 0  9990
2 36834  97.8966 205.9295 0001686  86.3081  18.9980 14.85392901859357
COSMO-SKYMED 4          
1 37216U 10060A   26182.62096214  .00000710  00000+0  95757-4 0  9999
2 37216  97.8883   6.0114 0001495  84.8723 275.2661 14.82158297846708
RESOURCESAT-2           
1 37387U 11015A   26182.58788089  .00000092  00000+0  61963-4 0  9997
2 37387  98.7639 249.9299 0010777 210.4453 149.6100 14.21603288788220
HAIYANG-2A              
1 37781U 11043A   26182.23608220  .00000161  00000+0  21773-3 0  9997
2 37781  99.3390 184.5963 0004752  61.7209 298.4419 13.73990655748587
RASAT                   
1 37791U 11044D   26182.56966883  .00000508  00000+0  96573-4 0  9993
2 37791  98.0586 273.7472 0021281 143.5664 341.1992 14.68179891795295
SRMSAT                  
1 37841U 11058D   26182.64796339  .00000383  00000+0  64224-4 0  9999
2 37841  19.9733 331.9443 0011805   3.5333  91.5062 14.11578567759869
PLEIADES 1A             
1 38012U 11076F   26182.68669319  .00000528  00000+0  12341-3 0  9994
2 38012  98.1979 257.5947 0001770  86.5137  66.4711 14.58540562774107
ZIYUAN 1-02C (ZY 1-02C) 
1 38038U 11079A   26182.63559483  .00000466  00000+0  16744-3 0  9992
2 38038  98.4071 249.6420 0005122 264.1731 259.9916 14.38226329761289
ARIRANG-3 (KOMPSAT-3)   
1 38338U 12025B   26182.60836644  .00000474  00000+0  10332-3 0  9997
2 38338  98.1178 139.8199 0006767  73.3955 286.7990 14.62218931753451
EXACTVIEW-1 (ADS-1B)    
1 38709U 12039C   26182.28392908  .00000134  00000+0  77199-4 0  9996
2 38709  98.9794 299.9935 0011761 128.0393 232.1848 14.24988828724716
SPOT 6                  
1 38755U 12047A   26182.60426307  .00000459  00000+0  10856-3 0  9999
2 38755  98.2118 249.7444 0001253  75.0530 285.0808 14.58531547735159
PLEIADES 1B             
1 39019U 12068A   26182.62299834  .00000459  00000+0  10843-3 0  9997
2 39019  98.1949 257.4760 0001697  83.9602 276.1791 14.58569740722953
GOKTURK 2               
1 39030U 12073A   26182.59271441  .00000685  00000+0  10747-3 0  9990
2 39030  97.6809  19.3014 0001064  62.9977 297.1342 14.75557884726631
LANDSAT 8               
1 39084U 13008A   26182.51412956  .00000338  00000+0  85161-4 0  9996
2 39084  98.2298 252.4789 0001353  93.2834 266.8520 14.57103983699983
SARAL                   
1 39086U 13009A   26182.63551020  .00000081  00000+0  45611-4 0  9999
2 39086  98.5558   9.0197 0000961 204.3033 155.8106 14.32859387697676
GAOFEN-1                
1 39150U 13018A   26182.63294586  .00001027  00000+0  15450-3 0  9990
2 39150  97.9095 254.4074 0015953 216.0550 143.9585 14.76506263710370
VNREDSAT 1              
1 39160U 13021B   26182.57004816  .00000569  00000+0  11501-3 0  9996
2 39160  97.9074 235.4341 0001713  81.1016 279.0382 14.64871404702399
ARIRANG-5 (KOMPSAT-5)   
1 39227U 13042A   26182.59847182  .00002024  00000+0  14877-3 0  9993
2 39227  97.6194   9.0950 0005112  88.1606 272.0206 15.04537603706020
SKYSAT-A                
1 39418U 13066C   26182.60870334  .00003495  00000+0  20046-3 0  9996
2 39418  97.3805 231.5466 0019711 263.6168  96.2819 15.13052369690664
DUBAISAT-2              
1 39419U 13066D   26182.58104764  .00004909  00000+0  30318-3 0  9995
2 39419  97.4564 172.3493 0010828 353.3601   6.7484 15.10288498688560
GPM-CORE                
1 39574U 14009C   26182.64683874  .00011396  00000+0  24590-3 0  9999
2 39574  64.9714 259.6903 0011293 257.3708 102.6170 15.44869577700047
SENTINEL-1A             
1 39634U 14016A   26182.63034103  .00000046  00000+0  19406-4 0  9999
2 39634  98.1773 189.9520 0001373  85.0702 275.0655 14.59199679652128
KAZEOSAT 1              
1 39731U 14024A   26182.66182243  .00000380  00000+0  12850-3 0  9994
2 39731  98.3207 254.7492 0001176  76.3335 283.7986 14.42086295640643
