OBJECT_NAME,OBJECT_ID,EPOCH,MEAN_MOTION,ECCENTRICITY,INCLINATION,RA_OF_ASC_NODE,ARG_OF_PERICENTER,MEAN_ANOMALY,EPHEMERIS_TYPE,CLASSIFICATION_TYPE,NORAD_CAT_ID,ELEMENT_SET_NO,REV_AT_EPOCH,BSTAR,MEAN_MOTION_DOT,MEAN_MOTION_DDOT
DUBAISAT-1,2009-041B,2026-07-01T06:22:48.338400,14.75147280,.00109825,98.0069,315.3705,32.6095,327.5790,0,U,35682,999,90717,.15778625E-3,.1015E-4,0
OCEANSAT-2,2009-051A,2026-07-01T13:38:14.551872,13.99659604,.00163865,98.2318,167.9843,193.1999,166.8741,0,U,35931,999,88134,-.13209109E-3,-.231E-5,0
WORLDVIEW-2 (WV-2),2009-055A,2026-07-01T13:38:03.414048,14.37903561,.00046239,98.4763,255.8210,164.4189,195.7141,0,U,35946,999,87771,.6106744E-4,.141E-5,0
SMOS,2009-059A,2026-07-01T12:08:02.869728,14.39780316,.0001308,98.4425,9.6307,87.7605,272.3733,0,U,36036,999,87551,.97063538E-4,.261E-5,0
YAOGAN-7,2009-069A,2026-07-01T05:42:34.608384,14.78024154,.00245533,98.0053,68.0171,357.4241,2.6839,0,U,36110,999,89170,.85477199E-4,.567E-5,0
TANDEM-X,2010-030A,2026-06-30T13:30:41.966208,15.19150820,.00017551,97.4456,189.0787,96.3101,263.8334,0,U,36605,999,88867,.23207727E-4,.42E-5,0
CARTOSAT-2B,2010-035A,2026-07-01T14:49:56.280000,14.78601008,.00119367,97.9946,233.0757,138.3641,221.8481,0,U,36795,999,86198,.63447587E-4,.412E-5,0
YAOGAN-10,2010-038A,2026-07-01T15:22:37.692192,14.85392901,.00016868,97.8966,205.9295,86.3081,18.9980,0,U,36834,999,85935,.23478061E-3,.1968E-4,0
COSMO-SKYMED 4,2010-060A,2026-07-01T14:54:11.128896,14.82158297,.00014956,97.8883,6.0114,84.8723,275.2661,0,U,37216,999,84670,.95756535E-4,.71E-5,0
RESOURCESAT-2,2011-015A,2026-07-01T14:06:32.908896,14.21603288,.00107772,98.7639,249.9299,210.4453,149.6100,0,U,37387,999,78822,.6196263E-4,.92E-6,0
HAIYANG-2A,2011-043A,2026-07-01T05:39:57.502080,13.73990655,.0004752,99.3390,184.5963,61.7209,298.4419,0,U,37781,999,74858,.21773E-3,.161E-5,0
RASAT,2011-044D,2026-07-01T13:40:19.386912,14.68179891,.00212814,98.0586,273.7472,143.5664,341.1992,0,U,37791,999,79529,.96572534E-4,.508E-5,0
SRMSAT,2011-058D,2026-07-01T15:33:04.036896,14.11578567,.00118051,19.9733,331.9443,3.5333,91.5062,0,U,37841,999,75986,.6422417E-4,.383E-5,0
PLEIADES 1A,2011-076F,2026-07-01T16:28:50.291616,14.58540562,.00017707,98.1979,257.5947,86.5137,66.4711,0,U,38012,999,77410,.12341138E-3,.528E-5,0
ZIYUAN 1-02C (ZY 1-02C),2011-079A,2026-07-01T15:15:15.393312,14.38226329,.00051221,98.4071,249.6420,264.1731,259.9916,0,U,38038,999,76128,.16744101E-3,.466E-5,0
ARIRANG-3 (KOMPSAT-3),2012-025B,2026-07-01T14:36:02.860416,14.62218931,.00067677,98.1178,139.8199,73.3955,286.7990,0,U,38338,999,75345,.10332245E-3,.474E-5,0
EXACTVIEW-1 (ADS-1B),2012-039C,2026-07-01T06:48:51.472512,14.24988828,.00117615,98.9794,299.9935,128.0393,232.1848,0,U,38709,999,72471,.77199129E-4,.134E-5,0
SPOT 6,2012-047A,2026-07-01T14:30:08.329248,14.58531547,.00012534,98.2118,249.7444,75.0530,285.0808,0,U,38755,999,73515,.10856148E-3,.459E-5,0
PLEIADES 1B,2012-068A,2026-07-01T14:57:07.056576,14.58569740,.00016976,98.1949,257.4760,83.9602,276.1791,0,U,39019,999,72295,.10843339E-3,.459E-5,0
GOKTURK 2,2012-073A,2026-07-01T14:13:30.525024,14.75557884,.00010644,97.6809,19.3014,62.9977,297.1342,0,U,39030,999,72663,.10746941E-3,.685E-5,0
LANDSAT 8,2013-008A,2026-07-01T12:20:20.793984,14.57103983,.00013539,98.2298,252.4789,93.2834,266.8520,0,U,39084,999,69998,.85160857E-4,.338E-5,0
SARAL,2013-009A,2026-07-01T15:15:08.081280,14.32859387,.00009619,98.5558,9.0197,204.3033,155.8106,0,U,39086,999,69767,.4561111E-4,.81E-6,0
GAOFEN-1,2013-018A,2026-07-01T15:11:26.522304,14.76506263,.00159538,97.9095,254.4074,216.0550,143.9585,0,U,39150,999,71037,.15449637E-3,.1027E-4,0
VNREDSAT 1,2013-021B,2026-07-01T13:40:52.161024,14.64871404,.00017138,97.9074,235.4341,81.1016,279.0382,0,U,39160,999,70239,.11500829E-3,.569E-5,0
ARIRANG-5 (KOMPSAT-5),2013-042A,2026-07-01T14:21:47.965248,15.04537603,.0005112,97.6194,9.0950,88.1606,272.0206,0,U,39227,999,70602,.1487723E-3,.2024E-4,0
SKYSAT-A,2013-066C,2026-07-01T14:36:31.968576,15.13052369,.00197115,97.3805,231.5466,263.6168,96.2819,0,U,39418,999,69066,.20045768E-3,.3495E-4,0
DUBAISAT-2,2013-066D,2026-07-01T13:56:42.516096,15.10288498,.00108281,97.4564,172.3493,353.3601,6.7484,0,U,39419,999,68856,.30318482E-3,.4909E-4,0
GPM-CORE,2014-009C,2026-07-01T15:31:26.867136,15.44869577,.00112939,64.9714,259.6903,257.3708,102.6170,0,U,39574,999,70004,.24590186E-3,.11396E-3,0
SENTINEL-1A,2014-016A,2026-07-01T15:07:41.464992,14.59199679,.0001373,98.1773,189.9520,85.0702,275.0655,0,U,39634,999,65212,.19405854E-4,.46E-6,0
KAZEOSAT 1,2014-024A,2026-07-01T15:53:01.457952,14.42086295,.0001176,98.3207,254.7492,76.3335,283.7986,0,U,39731,999,64064,.12850092E-3,.38E-5,0
